[{"OBJECT_NAME":"STARLINK-4365","OBJECT_ID":"2022-084AR","EPOCH":"2026-03-09T17:27:24.161472","MEAN_MOTION":15.01260015,"ECCENTRICITY":5.872e-5,"INCLINATION":97.6046,"RA_OF_ASC_NODE":130.2378,"ARG_OF_PERICENTER":190.7419,"MEAN_ANOMALY":169.3793,"EPHEMERIS_TYPE":0,"CLASSIFICATION_TYPE":"U","NORAD_CAT_ID":53228,"ELEMENT_SET_NO":999,"REV_AT_EPOCH":19932,"BSTAR":5.6397386e-5,"MEAN_MOTION_DOT":6.66e-6,"MEAN_MOTION_DDOT":0},{"OBJECT_NAME":"CZ-6A DEB","OBJECT_ID":"2024-140WE","EPOCH":"2026-03-09T15:35:26.811168","MEAN_MOTION":14.69407042,"ECCENTRICITY":0.0170896,"INCLINATION":89.1194,"RA_OF_ASC_NODE":289.5546,"ARG_OF_PERICENTER":162.1141,"MEAN_ANOMALY":198.6195,"EPHEMERIS_TYPE":0,"CLASSIFICATION_TYPE":"U","NORAD_CAT_ID":61365,"ELEMENT_SET_NO":999,"REV_AT_EPOCH":8091,"BSTAR":0.00023823,"MEAN_MOTION_DOT":1.788e-5,"MEAN_MOTION_DDOT":0}]
